STARLINK-31485          
1 59308U 24056N   26067.52828034  .00000170  00000+0  15701-4 0  9990
2 59308  43.0014 237.5287 0001410 254.6385 105.4310 15.27580311110977
COSMOS 2588             
1 64095U 25109A   26068.81179522  .00009169  00000+0  32611-3 0  9998
2 64095  72.9704  73.5401 0005019 308.6780  51.3966 15.29122656 44425
